{"norad_cat_id":"47588","object_name":"STARLINK-1993","object_id":"2021-009AS","object_type":"PAYLOAD","country_code":"US","epoch":"2026-05-30T13:29:38.984928","creation_date":"2026-05-30T15:06:47","launch_date":"2021-02-04","decay_date":null,"inclination":53.0278,"eccentricity":0.0013097,"mean_motion":16.11396294,"period":89.363,"semimajor_axis":6621.153,"apoapsis":251.689,"periapsis":234.346,"tle_line0":"0 STARLINK-1993","tle_line1":"1 47588U 21009AS  26150.56225677  .01098708  76107-3  10324-2 0  9997","tle_line2":"2 47588  53.0278 286.4245 0013097 302.7269  57.2502 16.11396294294366","fetched_at":"2026-05-30T16:18:06.042337+00:00"}
{"norad_cat_id":"46328","object_name":"STARLINK-1686","object_id":"2020-062D","object_type":"PAYLOAD","country_code":"US","epoch":"2026-05-30T13:17:00.271104","creation_date":"2026-05-30T13:56:16","launch_date":"2020-09-03","decay_date":null,"inclination":53.0162,"eccentricity":0.000791,"mean_motion":16.46286842,"period":87.47,"semimajor_axis":6527.269,"apoapsis":154.297,"periapsis":143.971,"tle_line0":"0 STARLINK-1686","tle_line1":"1 46328U 20062D   26150.55347536  .12787676  12574-4  27019-3 0  9994","tle_line2":"2 46328  53.0162 259.2163 0007910 285.8915  74.1262 16.46286842318185","fetched_at":"2026-05-30T16:18:06.042337+00:00"}
{"norad_cat_id":"63227","object_name":"CLARITY-1","object_id":"2025-052T","object_type":"PAYLOAD","country_code":"US","epoch":"2026-05-30T13:14:22.128000","creation_date":"2026-05-30T15:06:47","launch_date":"2025-03-15","decay_date":null,"inclination":97.3996,"eccentricity":0.0005761,"mean_motion":16.12432714,"period":89.306,"semimajor_axis":6618.315,"apoapsis":243.993,"periapsis":236.367,"tle_line0":"0 CLARITY-1","tle_line1":"1 63227U 25052T   26150.55164500  .00579632  18533-3  53229-3 0  9993","tle_line2":"2 63227  97.3996  70.6049 0005761 144.8112 215.3554 16.12432714 68876","fetched_at":"2026-05-30T16:18:06.042337+00:00"}
{"norad_cat_id":"61238","object_name":"OBJECT A","object_id":"2024-174A","object_type":"UNKNOWN","country_code":"PRC","epoch":"2026-05-30T13:08:20.157792","creation_date":"2026-05-30T15:16:38","launch_date":"2024-09-24","decay_date":null,"inclination":97.4466,"eccentricity":0.0001794,"mean_motion":15.19160931,"period":94.789,"semimajor_axis":6886.512,"apoapsis":509.613,"periapsis":507.142,"tle_line0":"0 OBJECT A","tle_line1":"1 61238U 24174A   26150.54745553  .00005134  00000-0  24745-3 0  9998","tle_line2":"2 61238  97.4466 158.5609 0001794  66.4077 293.7346 15.19160931 93005","fetched_at":"2026-05-30T16:18:06.042337+00:00"}
{"norad_cat_id":"60327","object_name":"HG-02","object_id":"2024-135A","object_type":"PAYLOAD","country_code":"PRC","epoch":"2026-05-30T12:48:35.006400","creation_date":"2026-05-30T15:26:28","launch_date":"2024-08-01","decay_date":null,"inclination":0.0427,"eccentricity":0.0008017,"mean_motion":1.00272493,"period":1436.087,"semimajor_axis":42164.533,"apoapsis":35820.202,"periapsis":35752.595,"tle_line0":"0 HG-02","tle_line1":"1 60327U 24135A   26150.53373850 -.00000160  00000-0  00000+0 0  9998","tle_line2":"2 60327   0.0427 351.0961 0008017  16.8411 225.4573  1.00272493  7323","fetched_at":"2026-05-30T16:18:06.042337+00:00"}
{"norad_cat_id":"43450","object_name":"APSTAR 6C","object_id":"2018-041A","object_type":"PAYLOAD","country_code":"PRC","epoch":"2026-05-30T12:42:42.344928","creation_date":"2026-05-30T14:56:43","launch_date":"2018-05-03","decay_date":null,"inclination":0.0288,"eccentricity":0.0001536,"mean_motion":1.00271592,"period":1436.1,"semimajor_axis":42164.786,"apoapsis":35793.128,"periapsis":35780.175,"tle_line0":"0 APSTAR 6C","tle_line1":"1 43450U 18041A   26150.52965677 -.00000305  00000-0  00000+0 0  9999","tle_line2":"2 43450   0.0288 355.1951 0001536  11.6356 205.9012  1.00271592 29638","fetched_at":"2026-05-30T16:18:06.042337+00:00"}
{"norad_cat_id":"45568","object_name":"STARLINK-1363","object_id":"2020-025AP","object_type":"PAYLOAD","country_code":"US","epoch":"2026-05-30T12:41:14.426880","creation_date":"2026-05-30T14:07:07","launch_date":"2020-04-22","decay_date":null,"inclination":53.0236,"eccentricity":0.0010599,"mean_motion":16.2232756,"period":88.761,"semimajor_axis":6591.377,"apoapsis":220.228,"periapsis":206.256,"tle_line0":"0 STARLINK-1363","tle_line1":"1 45568U 20025AP  26150.52863920  .01826407  11877-4  75580-3 0  9990","tle_line2":"2 45568  53.0236 339.9835 0010599 280.1229  79.8614 16.22327560339089","fetched_at":"2026-05-30T16:18:06.042337+00:00"}
{"norad_cat_id":"43432","object_name":"COSMOS 2526","object_id":"2018-037A","object_type":"PAYLOAD","country_code":"CIS","epoch":"2026-05-30T12:41:05.000640","creation_date":"2026-05-30T15:06:47","launch_date":"2018-04-18","decay_date":null,"inclination":0.0229,"eccentricity":8.38e-05,"mean_motion":1.00278752,"period":1435.997,"semimajor_axis":42162.779,"apoapsis":35788.177,"periapsis":35781.111,"tle_line0":"0 COSMOS 2526","tle_line1":"1 43432U 18037A   26150.52853010 -.00000332  00000-0  00000+0 0  9991","tle_line2":"2 43432   0.0229  75.2709 0000838 183.5368 307.5789  1.00278752 29781","fetched_at":"2026-05-30T16:18:06.042337+00:00"}
{"norad_cat_id":"53559","object_name":"STARLINK-4508","object_id":"2022-101AJ","object_type":"PAYLOAD","country_code":"US","epoch":"2026-05-30T12:38:20.880384","creation_date":"2026-05-30T14:46:32","launch_date":"2022-08-19","decay_date":null,"inclination":53.2165,"eccentricity":0.000149,"mean_motion":16.09396141,"period":89.475,"semimajor_axis":6626.637,"apoapsis":249.49,"periapsis":247.515,"tle_line0":"0 STARLINK-4508","tle_line1":"1 53559U 22101AJ  26150.52663056  .00870441  43229-3  94221-3 0  9998","tle_line2":"2 53559  53.2165  38.2054 0001490 266.8891  93.1974 16.09396141208921","fetched_at":"2026-05-30T16:18:06.042337+00:00"}
{"norad_cat_id":"69093","object_name":"W-SERIES 4 DEB","object_id":"2025-135BW","object_type":"DEBRIS","country_code":"US","epoch":"2026-05-30T12:37:35.833152","creation_date":"2026-05-30T14:26:26","launch_date":"2025-06-23","decay_date":null,"inclination":97.4141,"eccentricity":0.0173688,"mean_motion":16.064964,"period":89.636,"semimajor_axis":6634.609,"apoapsis":371.709,"periapsis":141.239,"tle_line0":"0 W-SERIES 4 DEB","tle_line1":"1 69093U 25135BW  26150.52610918  .05142555  19928-5  37653-3 0  9997","tle_line2":"2 69093  97.4141 262.3285 0173688 142.1598 219.2045 16.06496400  4009","fetched_at":"2026-05-30T16:18:06.042337+00:00"}
{"norad_cat_id":"60179","object_name":"CHINASAT-3A","object_id":"2024-122A","object_type":"PAYLOAD","country_code":"PRC","epoch":"2026-05-30T12:33:27.201600","creation_date":"2026-05-30T15:46:22","launch_date":"2024-06-29","decay_date":null,"inclination":0.0414,"eccentricity":0.0001684,"mean_motion":1.00269854,"period":1436.125,"semimajor_axis":42165.273,"apoapsis":35794.239,"periapsis":35780.038,"tle_line0":"0 CHINASAT-3A","tle_line1":"1 60179U 24122A   26150.52323150 -.00000301  00000-0  00000+0 0  9993","tle_line2":"2 60179   0.0414 117.6525 0001684 330.6023  89.7214  1.00269854  7134","fetched_at":"2026-05-30T16:18:06.042337+00:00"}
{"norad_cat_id":"39017","object_name":"CHINASAT 12","object_id":"2012-067A","object_type":"PAYLOAD","country_code":"PRC","epoch":"2026-05-30T12:29:27.585024","creation_date":"2026-05-30T15:26:28","launch_date":"2012-11-27","decay_date":null,"inclination":0.032,"eccentricity":0.0003345,"mean_motion":1.00273346,"period":1436.075,"semimajor_axis":42164.294,"apoapsis":35800.263,"periapsis":35772.055,"tle_line0":"0 CHINASAT 12","tle_line1":"1 39017U 12067A   26150.52045816 -.00000195  00000-0  00000+0 0  9996","tle_line2":"2 39017   0.0320  83.1826 0003345 344.3441  95.3675  1.00273346 49333","fetched_at":"2026-05-30T16:18:06.042337+00:00"}
{"norad_cat_id":"47321","object_name":"TIANTONG-1 3","object_id":"2021-003A","object_type":"PAYLOAD","country_code":"PRC","epoch":"2026-05-30T12:27:42.753312","creation_date":"2026-05-30T15:26:28","launch_date":"2021-01-19","decay_date":null,"inclination":1.7706,"eccentricity":0.0003566,"mean_motion":1.00271734,"period":1436.098,"semimajor_axis":42164.746,"apoapsis":35801.647,"periapsis":35771.575,"tle_line0":"0 TIANTONG-1 3","tle_line1":"1 47321U 21003A   26150.51924483 -.00000143  00000-0  00000+0 0  9991","tle_line2":"2 47321   1.7706 338.4327 0003566  98.1073  79.9275  1.00271734 19787","fetched_at":"2026-05-30T16:18:06.042337+00:00"}
{"norad_cat_id":"38091","object_name":"BEIDOU 11","object_id":"2012-008A","object_type":"PAYLOAD","country_code":"PRC","epoch":"2026-05-30T12:21:13.375296","creation_date":"2026-05-30T14:56:43","launch_date":"2012-02-24","decay_date":null,"inclination":3.5311,"eccentricity":0.0009768,"mean_motion":1.00267698,"period":1436.155,"semimajor_axis":42165.878,"apoapsis":35828.93,"periapsis":35746.555,"tle_line0":"0 BEIDOU 11","tle_line1":"1 38091U 12008A   26150.51473814  .00000068  00000-0  00000+0 0  9992","tle_line2":"2 38091   3.5311  69.8139 0009768 276.0327 146.2620  1.00267698 52196","fetched_at":"2026-05-30T16:18:06.042337+00:00"}
{"norad_cat_id":"46701","object_name":"STARLINK-1801","object_id":"2020-073AH","object_type":"PAYLOAD","country_code":"US","epoch":"2026-05-30T12:10:58.005984","creation_date":"2026-05-30T13:36:16","launch_date":"2020-10-18","decay_date":null,"inclination":53.0216,"eccentricity":0.0002452,"mean_motion":16.27695218,"period":88.469,"semimajor_axis":6576.878,"apoapsis":200.356,"periapsis":197.13,"tle_line0":"0 STARLINK-1801","tle_line1":"1 46701U 20073AH  26150.50761581  .03798833  12040-4  10055-2 0  9992","tle_line2":"2 46701  53.0216 142.7816 0002452 347.8355  12.2626 16.27695218310745","fetched_at":"2026-05-30T16:18:06.042337+00:00"}
